[{"OBJECT_NAME":"GAOFEN DUOMO (GFDM)","OBJECT_ID":"2020-042A","EPOCH":"2026-03-09T22:46:55.447968","MEAN_MOTION":14.76842284,"ECCENTRICITY":0.00121367,"INCLINATION":97.7864,"RA_OF_ASC_NODE":132.3939,"ARG_OF_PERICENTER":38.3075,"MEAN_ANOMALY":321.8996,"EPHEMERIS_TYPE":0,"CLASSIFICATION_TYPE":"U","NORAD_CAT_ID":45856,"ELEMENT_SET_NO":999,"REV_AT_EPOCH":30636,"BSTAR":0.00021262668,"MEAN_MOTION_DOT":1.445e-5,"MEAN_MOTION_DDOT":0},{"OBJECT_NAME":"CZ-6A DEB","OBJECT_ID":"2022-151ST","EPOCH":"2026-03-09T03:25:45.880032","MEAN_MOTION":14.58390972,"ECCENTRICITY":0.00923159,"INCLINATION":98.6225,"RA_OF_ASC_NODE":121.4968,"ARG_OF_PERICENTER":255.1718,"MEAN_ANOMALY":103.9239,"EPHEMERIS_TYPE":0,"CLASSIFICATION_TYPE":"U","NORAD_CAT_ID":54954,"ELEMENT_SET_NO":999,"REV_AT_EPOCH":17500,"BSTAR":0.0018568169,"MEAN_MOTION_DOT":9.08e-5,"MEAN_MOTION_DDOT":0}]
